satname,norad_id,inclination_deg,eccentricity,mean_motion_rev_per_day,perigee_km,apogee_km,l1,l2
STARLINK-1502,45764,53.0535,0.0001517,15.06396661,546.171214582605,548.2723684399489,1 45764U 20038AL  25347.10473100  .00005125  00000+0  36274-3 0  9993,2 45764  53.0535 245.3139 0001517  98.9567 261.1594 15.06396661303438
STARLINK-1470,45772,53.0516,0.0007499,15.20857497,498.0924453054322,508.4131537267458,1 45772U 20038AU  25347.05954719  .00055070  00000+0  24571-2 0  9996,2 45772  53.0516 214.1265 0007499  78.4549 281.7288 15.20857497303868
STARLINK-1482,45773,53.0535,0.0001541,15.06391101,546.1716318101089,548.3060326416007,1 45773U 20038AV  25347.06971559  .00001382  00000+0  11165-3 0  9992,2 45773  53.0535 225.4683 0001541  93.6364 266.4801 15.06391101303708
STARLINK-1496,45780,53.0538,0.0001245,15.0638431,546.3974340634704,548.1218578283106,1 45780U 20038BC  25347.03655199  .00014629  00000+0  99937-3 0  9997,2 45780  53.0538 225.6168 0001245  80.3932 279.7198 15.06384310303681
STARLINK-1497,45781,53.034,0.0004549,15.67379641,363.3355152926006,369.4716983366807,1 45781U 20038BD  25347.33336806  .00153013  00000+0  13687-2 0  9990,2 45781  53.0340 153.0400 0004549 122.4977 193.7854 15.67379641  5910
STARLINK-1510,45784,53.0216,0.0004351,15.91972791,293.8585016488787,299.66699941179013,1 45784U 20038BG  25347.33336806  .00482231  10124-3  14303-2 0  9998,2 45784  53.0216 123.1790 0004351 301.6365 322.5917 15.91972791  6014
STARLINK-1513,45786,53.0537,0.0001588,15.06385092,546.1574965811778,548.3570017947195,1 45786U 20038BJ  25346.93333213 -.00001714  00000+0 -96233-4 0  9991,2 45786  53.0537 226.0838 0001588  96.2123 263.9047 15.06385092303689
STARLINK-1522,46027,53.0549,0.0001503,15.06402941,546.1616656780288,548.2434227450203,1 46027U 20055A   25346.84764261  .00001239  00000+0  10202-3 0  9991,2 46027  53.0549 156.4663 0001503  96.3105 263.8055 15.06402941295794
STARLINK-1523,46028,53.0545,7.85e-05,15.06397193,546.6765204652156,547.7638015394932,1 46028U 20055B   25347.19409835  .00002437  00000+0  18246-3 0  9991,2 46028  53.0545 154.9130 0000785 124.5938 235.5125 15.06397193295866
STARLINK-1526,46029,53.0542,0.0001358,15.06431493,546.1745888838705,548.0554873374222,1 46029U 20055C   25347.18672404 -.00010722  00000+0 -70139-3 0  9992,2 46029  53.0542 154.9435 0001358 108.4721 251.6416 15.06431493295853
STARLINK-1555,46032,53.0534,0.0001983,15.06391849,545.8632381190419,548.6098412648844,1 46032U 20055F   25346.90661437 -.00000692  00000+0 -27558-4 0  9992,2 46032  53.0534 156.2009 0001983  97.8081 262.3133 15.06391849295815
STARLINK-1556,46033,53.0533,7.42e-05,15.063974,546.7056651209978,547.7333880295419,1 46033U 20055G   25346.88817153 -.00003511  00000+0 -21695-3 0  9996,2 46033  53.0533 156.2840 0000742  58.8207 301.2855 15.06397400295786
STARLINK-1557,46034,53.0526,0.0001185,15.06394651,546.4072961545908,548.0486076481902,1 46034U 20055H   25346.75917520  .00000455  00000+0  49446-4 0  9999,2 46034  53.0526 156.8621 0001185  83.4436 276.6688 15.06394651295764
STARLINK-1558,46035,53.0546,0.0001238,15.06398016,546.3602797149415,548.074997523463,1 46035U 20055J   25347.16462793 -.00001441  00000+0 -77884-4 0  9998,2 46035  53.0546 155.0442 0001238  95.8537 264.2593 15.06398016295854
STARLINK-1560,46036,53.0527,0.00016,15.0638245,546.1572823073566,548.3734110582946,1 46036U 20055K   25346.88450230  .00001483  00000+0  11851-3 0  9995,2 46036  53.0527 156.3042 0001600  87.0754 273.0418 15.06382450295816
STARLINK-1567,46038,53.0543,0.0001434,15.06450001,546.0652433050855,548.0513893218049,1 46038U 20055M   25347.16091027  .00012524  00000+0  85705-3 0  9991,2 46038  53.0543 155.0605 0001434  97.6781 262.4371 15.06450001295840
STARLINK-1569,46039,53.0545,0.0001264,15.06385505,546.380613708744,548.1313530549432,1 46039U 20055N   25347.16832285 -.00001310  00000+0 -69090-4 0  9994,2 46039  53.0545 155.0281 0001264  84.4722 275.6412 15.06385505295841
STARLINK-1582,46043,53.0543,0.0001542,15.06433392,546.0413451912154,548.1770911248959,1 46043U 20055S   25346.91025781  .00004205  00000+0  30079-3 0  9994,2 46043  53.0543 156.1863 0001542 107.2875 252.8283 15.06433392295801
STARLINK-1591,46045,53.0536,0.0001267,15.06408705,546.307440213498,548.0623167775093,1 46045U 20055U   25347.20147358  .00000620  00000+0  60493-4 0  9995,2 46045  53.0536 154.8788 0001267  88.7071 271.4063 15.06408705295837
STARLINK-1524,46047,53.0534,0.0001376,15.06392215,546.2824867000782,548.1883491894969,1 46047U 20055W   25346.75641228 -.00000612  00000+0 -22222-4 0  9992,2 46047  53.0534 146.8770 0001376  91.7861 268.3286 15.06392215295921
STARLINK-1527,46048,53.0553,0.0001487,15.0638532,546.2267443684068,548.2863564102918,1 46048U 20055X   25347.15081895  .00002568  00000+0  19128-3 0  9996,2 46048  53.0553 145.1058 0001487  77.7391 282.3765 15.06385320295960
STARLINK-1540,46051,53.0538,0.0001164,15.06391719,546.4308246004639,548.0430516532597,1 46051U 20055AA  25346.85224214  .00000080  00000+0  24246-4 0  9995,2 46051  53.0538 146.4463 0001164  85.0099 275.1023 15.06391719295955
STARLINK-1541,46052,53.0555,0.0001208,15.06387268,546.4139931397167,548.0871667790352,1 46052U 20055AB  25347.16924665  .00000181  00000+0  31050-4 0  9991,2 46052  53.0555 145.0220 0001208  93.2287 266.8840 15.06387268295969
STARLINK-1543,46053,53.0544,0.0001149,15.06397351,546.4239532714901,548.0154002358076,1 46053U 20055AC  25347.17292362  .00001037  00000+0  88521-4 0  9991,2 46053  53.0544 145.0058 0001149  91.4479 268.6642 15.06397351295991
STARLINK-1548,46054,53.0551,0.0001023,15.06393176,546.5240072973484,547.9409378914406,1 46054U 20055AD  25346.71586392  .00000065  00000+0  23218-4 0  9992,2 46054  53.0551 147.0572 0001023  90.5682 269.5424 15.06393176295922
STARLINK-1554,46055,53.0548,0.0001861,15.06394947,545.9382344500827,548.51585494752,1 46055U 20055AE  25347.16554558 -.00001850  00000+0 -10531-3 0  9990,2 46055  53.0548 145.0391 0001861  94.2185 265.9017 15.06394947295997
STARLINK-1564,46058,53.0542,0.0001351,15.06397105,546.2848149216425,548.1560464994218,1 46058U 20055AH  25346.84492510  .00000473  00000+0  50631-4 0  9990,2 46058  53.0542 146.9407 0001351  89.3262 270.7882 15.06397105295934
STARLINK-1570,46059,53.0551,9.53e-05,15.06401063,546.548314591203,547.8682854053823,1 46059U 20055AJ  25347.13974850 -.00001497  00000+0 -81650-4 0  9990,2 46059  53.0551 145.1558 0000953  84.5237 275.5861 15.06401063295949
